CCSDS_OMM_VERS = 2.0
CREATION_DATE  = 
ORIGINATOR     = 

OBJECT_NAME    = STARLINK-36523
OBJECT_ID      = 2026-008R
CENTER_NAME    = EARTH
REF_FRAME      = TEME
TIME_SYSTEM    = UTC
MEAN_ELEMENT_THEORY = SGP/SGP4

EPOCH          = 2026-02-01T06:00:02.000160
MEAN_MOTION    = 15.75074952
ECCENTRICITY   = .00015796
INCLINATION    = 43.0000
RA_OF_ASC_NODE = 54.5764
ARG_OF_PERICENTER = 265.5712
MEAN_ANOMALY   = 269.6013

EPHEMERIS_TYPE = 0
CLASSIFICATION_TYPE = U
NORAD_CAT_ID   = 67460
ELEMENT_SET_NO = 999
REV_AT_EPOCH   = 395
BSTAR          = -.41619167E-3
MEAN_MOTION_DOT = -.64025E-3
MEAN_MOTION_DDOT = 0

CCSDS_OMM_VERS = 2.0
CREATION_DATE  = 
ORIGINATOR     = 

OBJECT_NAME    = STARLINK-36522
OBJECT_ID      = 2026-008S
CENTER_NAME    = EARTH
REF_FRAME      = TEME
TIME_SYSTEM    = UTC
MEAN_ELEMENT_THEORY = SGP/SGP4

EPOCH          = 2026-02-01T06:00:02.000160
MEAN_MOTION    = 15.75126088
ECCENTRICITY   = .00012835
INCLINATION    = 42.9998
RA_OF_ASC_NODE = 54.5718
ARG_OF_PERICENTER = 264.4857
MEAN_ANOMALY   = 272.5908

EPHEMERIS_TYPE = 0
CLASSIFICATION_TYPE = U
NORAD_CAT_ID   = 67461
ELEMENT_SET_NO = 999
REV_AT_EPOCH   = 393
BSTAR          = -.1371224E-2
MEAN_MOTION_DOT = -.206811E-2
MEAN_MOTION_DDOT = 0

CCSDS_OMM_VERS = 2.0
CREATION_DATE  = 
ORIGINATOR     = 

OBJECT_NAME    = STARLINK-36504
OBJECT_ID      = 2026-008T
CENTER_NAME    = EARTH
REF_FRAME      = TEME
TIME_SYSTEM    = UTC
MEAN_ELEMENT_THEORY = SGP/SGP4

EPOCH          = 2026-02-01T06:00:02.000160
MEAN_MOTION    = 15.75074542
ECCENTRICITY   = .0001238
INCLINATION    = 42.9999
RA_OF_ASC_NODE = 54.5665
ARG_OF_PERICENTER = 269.1459
MEAN_ANOMALY   = 269.8583

EPHEMERIS_TYPE = 0
CLASSIFICATION_TYPE = U
NORAD_CAT_ID   = 67462
ELEMENT_SET_NO = 999
REV_AT_EPOCH   = 395
BSTAR          = -.39897078E-3
MEAN_MOTION_DOT = -.61411E-3
MEAN_MOTION_DDOT = 0

CCSDS_OMM_VERS = 2.0
CREATION_DATE  = 
ORIGINATOR     = 

OBJECT_NAME    = STARLINK-36505
OBJECT_ID      = 2026-008U
CENTER_NAME    = EARTH
REF_FRAME      = TEME
TIME_SYSTEM    = UTC
MEAN_ELEMENT_THEORY = SGP/SGP4

EPOCH          = 2026-02-01T06:00:02.000160
MEAN_MOTION    = 15.75067711
ECCENTRICITY   = .00014235
INCLINATION    = 42.9999
RA_OF_ASC_NODE = 54.5628
ARG_OF_PERICENTER = 276.1221
MEAN_ANOMALY   = 264.8030

EPHEMERIS_TYPE = 0
CLASSIFICATION_TYPE = U
NORAD_CAT_ID   = 67463
ELEMENT_SET_NO = 999
REV_AT_EPOCH   = 393
BSTAR          = -.37069214E-3
MEAN_MOTION_DOT = -.57105E-3
MEAN_MOTION_DDOT = 0

CCSDS_OMM_VERS = 2.0
CREATION_DATE  = 
ORIGINATOR     = 

OBJECT_NAME    = STARLINK-36421
OBJECT_ID      = 2026-008V
CENTER_NAME    = EARTH
REF_FRAME      = TEME
TIME_SYSTEM    = UTC
MEAN_ELEMENT_THEORY = SGP/SGP4

EPOCH          = 2026-02-01T06:00:02.000160
MEAN_MOTION    = 15.75160352
ECCENTRICITY   = .00016137
INCLINATION    = 42.9998
RA_OF_ASC_NODE = 54.5575
ARG_OF_PERICENTER = 253.1954
MEAN_ANOMALY   = 289.6258

EPHEMERIS_TYPE = 0
CLASSIFICATION_TYPE = U
NORAD_CAT_ID   = 67464
ELEMENT_SET_NO = 999
REV_AT_EPOCH   = 393
BSTAR          = -.20513921E-2
MEAN_MOTION_DOT = -.306068E-2
MEAN_MOTION_DDOT = 0

CCSDS_OMM_VERS = 2.0
CREATION_DATE  = 
ORIGINATOR     = 

OBJECT_NAME    = STARLINK-36437
OBJECT_ID      = 2026-008W
CENTER_NAME    = EARTH
REF_FRAME      = TEME
TIME_SYSTEM    = UTC
MEAN_ELEMENT_THEORY = SGP/SGP4

EPOCH          = 2026-02-01T06:00:02.000160
MEAN_MOTION    = 15.75075102
ECCENTRICITY   = .00015379
INCLINATION    = 42.9999
RA_OF_ASC_NODE = 54.5519
ARG_OF_PERICENTER = 257.6812
MEAN_ANOMALY   = 287.0736

EPHEMERIS_TYPE = 0
CLASSIFICATION_TYPE = U
NORAD_CAT_ID   = 67465
ELEMENT_SET_NO = 999
REV_AT_EPOCH   = 393
BSTAR          = -.40153443E-3
MEAN_MOTION_DOT = -.61803E-3
MEAN_MOTION_DDOT = 0

CCSDS_OMM_VERS = 2.0
CREATION_DATE  = 
ORIGINATOR     = 

OBJECT_NAME    = STARLINK-36520
OBJECT_ID      = 2026-008X
CENTER_NAME    = EARTH
REF_FRAME      = TEME
TIME_SYSTEM    = UTC
MEAN_ELEMENT_THEORY = SGP/SGP4

EPOCH          = 2026-02-01T06:00:02.000160
MEAN_MOTION    = 15.75084314
ECCENTRICITY   = .00015334
INCLINATION    = 42.9997
RA_OF_ASC_NODE = 54.5468
ARG_OF_PERICENTER = 258.0567
MEAN_ANOMALY   = 288.6118

EPHEMERIS_TYPE = 0
CLASSIFICATION_TYPE = U
NORAD_CAT_ID   = 67466
ELEMENT_SET_NO = 999
REV_AT_EPOCH   = 393
BSTAR          = -.47158867E-3
MEAN_MOTION_DOT = -.72441E-3
MEAN_MOTION_DDOT = 0

CCSDS_OMM_VERS = 2.0
CREATION_DATE  = 
ORIGINATOR     = 

OBJECT_NAME    = STARLINK-36425
OBJECT_ID      = 2026-008Y
CENTER_NAME    = EARTH
REF_FRAME      = TEME
TIME_SYSTEM    = UTC
MEAN_ELEMENT_THEORY = SGP/SGP4

EPOCH          = 2026-02-01T06:00:02.000160
MEAN_MOTION    = 15.73062694
ECCENTRICITY   = .00007518
INCLINATION    = 42.9996
RA_OF_ASC_NODE = 54.5464
ARG_OF_PERICENTER = 267.7315
MEAN_ANOMALY   = 279.2570

EPHEMERIS_TYPE = 0
CLASSIFICATION_TYPE = U
NORAD_CAT_ID   = 67467
ELEMENT_SET_NO = 999
REV_AT_EPOCH   = 393
BSTAR          = -.1703248E-1
MEAN_MOTION_DOT = -.2104815E-1
MEAN_MOTION_DDOT = 0

CCSDS_OMM_VERS = 2.0
CREATION_DATE  = 
ORIGINATOR     = 

OBJECT_NAME    = STARLINK-36414
OBJECT_ID      = 2026-008Z
CENTER_NAME    = EARTH
REF_FRAME      = TEME
TIME_SYSTEM    = UTC
MEAN_ELEMENT_THEORY = SGP/SGP4

EPOCH          = 2026-02-01T06:00:02.000160
MEAN_MOTION    = 15.75094446
ECCENTRICITY   = .00018043
INCLINATION    = 43.0000
RA_OF_ASC_NODE = 54.2707
ARG_OF_PERICENTER = 276.4571
MEAN_ANOMALY   = 20.3612

EPHEMERIS_TYPE = 0
CLASSIFICATION_TYPE = U
NORAD_CAT_ID   = 67468
ELEMENT_SET_NO = 999
REV_AT_EPOCH   = 393
BSTAR          = -.51497832E-3
MEAN_MOTION_DOT = -.7904E-3
MEAN_MOTION_DDOT = 0

CCSDS_OMM_VERS = 2.0
CREATION_DATE  = 
ORIGINATOR     = 

OBJECT_NAME    = STARLINK-36441
OBJECT_ID      = 2026-008AA
CENTER_NAME    = EARTH
REF_FRAME      = TEME
TIME_SYSTEM    = UTC
MEAN_ELEMENT_THEORY = SGP/SGP4

EPOCH          = 2026-02-01T06:00:02.000160
MEAN_MOTION    = 15.75388748
ECCENTRICITY   = .00021094
INCLINATION    = 42.9999
RA_OF_ASC_NODE = 54.2592
ARG_OF_PERICENTER = 254.5092
MEAN_ANOMALY   = 46.1330

EPHEMERIS_TYPE = 0
CLASSIFICATION_TYPE = U
NORAD_CAT_ID   = 67469
ELEMENT_SET_NO = 999
REV_AT_EPOCH   = 393
BSTAR          = -.75477246E-2
MEAN_MOTION_DOT = -.1059607E-1
MEAN_MOTION_DDOT = 0

CCSDS_OMM_VERS = 2.0
CREATION_DATE  = 
ORIGINATOR     = 

OBJECT_NAME    = STARLINK-36454
OBJECT_ID      = 2026-008AB
CENTER_NAME    = EARTH
REF_FRAME      = TEME
TIME_SYSTEM    = UTC
MEAN_ELEMENT_THEORY = SGP/SGP4

EPOCH          = 2026-02-01T06:00:02.000160
MEAN_MOTION    = 15.75065560
ECCENTRICITY   = .00015261
INCLINATION    = 42.9999
RA_OF_ASC_NODE = 54.2540
ARG_OF_PERICENTER = 280.3404
MEAN_ANOMALY   = 22.2605

EPHEMERIS_TYPE = 0
CLASSIFICATION_TYPE = U
NORAD_CAT_ID   = 67470
ELEMENT_SET_NO = 999
REV_AT_EPOCH   = 393
BSTAR          = -.38880618E-3
MEAN_MOTION_DOT = -.59848E-3
MEAN_MOTION_DDOT = 0

CCSDS_OMM_VERS = 2.0
CREATION_DATE  = 
ORIGINATOR     = 

OBJECT_NAME    = STARLINK-36334
OBJECT_ID      = 2026-008AC
CENTER_NAME    = EARTH
REF_FRAME      = TEME
TIME_SYSTEM    = UTC
MEAN_ELEMENT_THEORY = SGP/SGP4

EPOCH          = 2026-02-01T06:00:02.000160
MEAN_MOTION    = 15.75139921
ECCENTRICITY   = .0000684
INCLINATION    = 42.9999
RA_OF_ASC_NODE = 54.2648
ARG_OF_PERICENTER = 265.6272
MEAN_ANOMALY   = 33.0756

EPHEMERIS_TYPE = 0
CLASSIFICATION_TYPE = U
NORAD_CAT_ID   = 67471
ELEMENT_SET_NO = 999
REV_AT_EPOCH   = 393
BSTAR          = -.84039949E-3
MEAN_MOTION_DOT = -.128179E-2
MEAN_MOTION_DDOT = 0

