STARLINK-36523          
1 67460U 26008R   26032.25002315 -.00064025  00000+0 -41619-3 0  9992
2 67460  43.0000  54.5764 0001579 265.5712 269.6013 15.75074952  3952
STARLINK-36522          
1 67461U 26008S   26032.25002315 -.00206811  00000+0 -13712-2 0  9996
2 67461  42.9998  54.5718 0001283 264.4857 272.5908 15.75126088  3938
STARLINK-36504          
1 67462U 26008T   26032.25002315 -.00061411  00000+0 -39897-3 0  9995
2 67462  42.9999  54.5665 0001238 269.1459 269.8583 15.75074542  3958
STARLINK-36505          
1 67463U 26008U   26032.25002315 -.00057105  00000+0 -37069-3 0  9990
2 67463  42.9999  54.5628 0001423 276.1221 264.8030 15.75067711  3939
STARLINK-36421          
1 67464U 26008V   26032.25002315 -.00306068  00000+0 -20514-2 0  9992
2 67464  42.9998  54.5575 0001613 253.1954 289.6258 15.75160352  3931
STARLINK-36437          
1 67465U 26008W   26032.25002315 -.00061803  00000+0 -40153-3 0  9990
2 67465  42.9999  54.5519 0001537 257.6812 287.0736 15.75075102  3939
STARLINK-36520          
1 67466U 26008X   26032.25002315 -.00072441  00000+0 -47159-3 0  9994
2 67466  42.9997  54.5468 0001533 258.0567 288.6118 15.75084314  3935
STARLINK-36425          
1 67467U 26008Y   26032.25002315 -.02104815  00000+0 -17032-1 0  9993
2 67467  42.9996  54.5464 0000751 267.7315 279.2570 15.73062694  3933
STARLINK-36414          
1 67468U 26008Z   26032.25002315 -.00079040  00000+0 -51498-3 0  9999
2 67468  43.0000  54.2707 0001804 276.4571  20.3612 15.75094446  3934
STARLINK-36441          
1 67469U 26008AA  26032.25002315 -.01059607  00000+0 -75477-2 0  9990
2 67469  42.9999  54.2592 0002109 254.5092  46.1330 15.75388748  3930
STARLINK-36454          
1 67470U 26008AB  26032.25002315 -.00059848  00000+0 -38881-3 0  9997
2 67470  42.9999  54.2540 0001526 280.3404  22.2605 15.75065560  3935
STARLINK-36334          
1 67471U 26008AC  26032.25002315 -.00128179  00000+0 -84040-3 0  9990
2 67471  42.9999  54.2648 0000684 265.6272  33.0756 15.75139921  3938
